EUTELSAT QUANTUM        
1 49056U 21069B   25315.18063773  .00000122  00000+0  00000+0 0  9996
2 49056   0.0308  46.2698 0003275 204.4037 272.6448  1.00271260 15748
EUTELSAT KONNECT VHTS   
1 53765U 22110A   25315.17171101  .00000013  00000+0  00000+0 0  9999
2 53765   0.0585  96.6142 0002610 119.3070 259.1823  1.00270836  4645
EUTELSAT HOTBIRD 13F    
1 54048U 22134A   25314.74574196  .00000083  00000+0  00000+0 0  9990
2 54048   0.0567 286.2191 0001974  67.8868 337.5269  1.00271223 11188
EUTELSAT HOTBIRD 13G    
1 54225U 22146A   25314.95972316  .00000083  00000+0  00000+0 0  9999
2 54225   0.0480 241.7665 0002001 303.7147 223.4007  1.00272272  5276
EUTELSAT 10B            
1 54259U 22157A   25315.19142059  .00000064  00000+0  00000+0 0  9997
2 54259   0.0589  94.4058 0001019  69.2404 325.8408  1.00269338 10840
EUTELSAT 36D            
1 59346U 24059A   25315.17829772  .00000151  00000+0  00000+0 0  9991
2 59346   0.0168 273.8647 0000355  28.7231 208.0533  1.00269825  5961
